ATLAS CENTAUR R/B       
1 06155U 72065B   26068.62592765  .00001572  00000+0  21725-3 0  9995
2 06155  35.0018 306.1281 0033550   8.2560 351.8687 14.77686476841258
SL-8 R/B                
1 08459U 75112B   26068.85088075  .00000322  00000+0  11441-3 0  9995
2 08459  74.0628  18.6151 0014432 111.8338 248.4353 14.38203831631895
SL-3 R/B                
1 10114U 77057B   26068.84848311  .00015555  00000+0  32591-3 0  9995
2 10114  97.5777 240.7761 0006161 284.5357  75.5208 15.45499134668356
SEASAT 1                
1 10967U 78064A   26068.70363327  .00000320  00000+0  12780-3 0  9996
2 10967 108.0108 125.5291 0002308 285.9095  74.1796 14.46160290506513
SL-14 R/B               
1 11267U 79011B   26068.58048695  .00000711  00000+0  67656-4 0  9994
2 11267  82.5209  96.6746 0017409  60.8949 299.4011 14.91907955528764
SL-8 R/B                
1 11574U 79089B   26068.53742881  .00000359  00000+0  11655-3 0  9998
2 11574  74.0668  91.3256 0017164 264.0643  95.8558 14.42350739436080
SL-14 R/B               
1 11672U 80005B   26068.72766576  .00000685  00000+0  66729-4 0  9990
2 11672  82.5144 307.2004 0016193 158.1149 202.0766 14.90930453476499
SL-8 R/B                
1 12139U 81003B   26068.66962247  .00021105  00000+0  54116-3 0  9990
2 12139  82.9386 290.0424 0262185 178.7086 181.4887 15.10973620314678
SL-3 R/B                
1 12465U 81046B   26068.84935556  .00013710  00000+0  31863-3 0  9999
2 12465  81.2298 289.5524 0019558  21.7604 338.4465 15.42000884438452
SL-3 R/B                
1 12904U 81103B   26068.83806457  .00006277  00000+0  27837-3 0  9993
2 12904  81.1587 213.2579 0012431 286.3601  73.6263 15.21378384973259
SL-3 R/B                
1 13068U 82013B   26068.84607267  .00005608  00000+0  24270-3 0  9990
2 13068  81.1762 160.5873 0022655 176.9824 183.1549 15.22020581404377
SL-3 R/B                
1 13154U 82039B   26068.85559923  .00003393  00000+0  20491-3 0  9990
2 13154  81.1584 215.7706 0029710 323.9285  35.9935 15.10082703381667
