CCSDS_OMM_VERS = 2.0
CREATION_DATE  = 
ORIGINATOR     = 

OBJECT_NAME    = ATLAS CENTAUR R/B
OBJECT_ID      = 1972-065B
CENTER_NAME    = EARTH
REF_FRAME      = TEME
TIME_SYSTEM    = UTC
MEAN_ELEMENT_THEORY = SGP/SGP4

EPOCH          = 2026-03-09T15:01:20.148960
MEAN_MOTION    = 14.77686476
ECCENTRICITY   = .003355
INCLINATION    = 35.0018
RA_OF_ASC_NODE = 306.1281
ARG_OF_PERICENTER = 8.2560
MEAN_ANOMALY   = 351.8687

EPHEMERIS_TYPE = 0
CLASSIFICATION_TYPE = U
NORAD_CAT_ID   = 6155
ELEMENT_SET_NO = 999
REV_AT_EPOCH   = 84125
BSTAR          = .21725E-3
MEAN_MOTION_DOT = .1572E-4
MEAN_MOTION_DDOT = 0

CCSDS_OMM_VERS = 2.0
CREATION_DATE  = 
ORIGINATOR     = 

OBJECT_NAME    = SL-8 R/B
OBJECT_ID      = 1975-112B
CENTER_NAME    = EARTH
REF_FRAME      = TEME
TIME_SYSTEM    = UTC
MEAN_ELEMENT_THEORY = SGP/SGP4

EPOCH          = 2026-03-09T20:25:16.096800
MEAN_MOTION    = 14.38203831
ECCENTRICITY   = .0014432
INCLINATION    = 74.0628
RA_OF_ASC_NODE = 18.6151
ARG_OF_PERICENTER = 111.8338
MEAN_ANOMALY   = 248.4353

EPHEMERIS_TYPE = 0
CLASSIFICATION_TYPE = U
NORAD_CAT_ID   = 8459
ELEMENT_SET_NO = 999
REV_AT_EPOCH   = 63189
BSTAR          = .11441E-3
MEAN_MOTION_DOT = .322E-5
MEAN_MOTION_DDOT = 0

CCSDS_OMM_VERS = 2.0
CREATION_DATE  = 
ORIGINATOR     = 

OBJECT_NAME    = SL-3 R/B
OBJECT_ID      = 1977-057B
CENTER_NAME    = EARTH
REF_FRAME      = TEME
TIME_SYSTEM    = UTC
MEAN_ELEMENT_THEORY = SGP/SGP4

EPOCH          = 2026-03-09T20:21:48.940704
MEAN_MOTION    = 15.45499134
ECCENTRICITY   = .0006161
INCLINATION    = 97.5777
RA_OF_ASC_NODE = 240.7761
ARG_OF_PERICENTER = 284.5357
MEAN_ANOMALY   = 75.5208

EPHEMERIS_TYPE = 0
CLASSIFICATION_TYPE = U
NORAD_CAT_ID   = 10114
ELEMENT_SET_NO = 999
REV_AT_EPOCH   = 66835
BSTAR          = .32591E-3
MEAN_MOTION_DOT = .15555E-3
MEAN_MOTION_DDOT = 0

CCSDS_OMM_VERS = 2.0
CREATION_DATE  = 
ORIGINATOR     = 

OBJECT_NAME    = SEASAT 1
OBJECT_ID      = 1978-064A
CENTER_NAME    = EARTH
REF_FRAME      = TEME
TIME_SYSTEM    = UTC
MEAN_ELEMENT_THEORY = SGP/SGP4

EPOCH          = 2026-03-09T16:53:13.914528
MEAN_MOTION    = 14.46160290
ECCENTRICITY   = .0002308
INCLINATION    = 108.0108
RA_OF_ASC_NODE = 125.5291
ARG_OF_PERICENTER = 285.9095
MEAN_ANOMALY   = 74.1796

EPHEMERIS_TYPE = 0
CLASSIFICATION_TYPE = U
NORAD_CAT_ID   = 10967
ELEMENT_SET_NO = 999
REV_AT_EPOCH   = 50651
BSTAR          = .1278E-3
MEAN_MOTION_DOT = .32E-5
MEAN_MOTION_DDOT = 0

CCSDS_OMM_VERS = 2.0
CREATION_DATE  = 
ORIGINATOR     = 

OBJECT_NAME    = SL-14 R/B
OBJECT_ID      = 1979-011B
CENTER_NAME    = EARTH
REF_FRAME      = TEME
TIME_SYSTEM    = UTC
MEAN_ELEMENT_THEORY = SGP/SGP4

EPOCH          = 2026-03-09T13:55:54.072480
MEAN_MOTION    = 14.91907955
ECCENTRICITY   = .0017409
INCLINATION    = 82.5209
RA_OF_ASC_NODE = 96.6746
ARG_OF_PERICENTER = 60.8949
MEAN_ANOMALY   = 299.4011

EPHEMERIS_TYPE = 0
CLASSIFICATION_TYPE = U
NORAD_CAT_ID   = 11267
ELEMENT_SET_NO = 999
REV_AT_EPOCH   = 52876
BSTAR          = .67656E-4
MEAN_MOTION_DOT = .711E-5
MEAN_MOTION_DDOT = 0

CCSDS_OMM_VERS = 2.0
CREATION_DATE  = 
ORIGINATOR     = 

OBJECT_NAME    = SL-8 R/B
OBJECT_ID      = 1979-089B
CENTER_NAME    = EARTH
REF_FRAME      = TEME
TIME_SYSTEM    = UTC
MEAN_ELEMENT_THEORY = SGP/SGP4

EPOCH          = 2026-03-09T12:53:53.849184
MEAN_MOTION    = 14.42350739
ECCENTRICITY   = .00171642
INCLINATION    = 74.0668
RA_OF_ASC_NODE = 91.3256
ARG_OF_PERICENTER = 264.0643
MEAN_ANOMALY   = 95.8558

EPHEMERIS_TYPE = 0
CLASSIFICATION_TYPE = U
NORAD_CAT_ID   = 11574
ELEMENT_SET_NO = 999
REV_AT_EPOCH   = 43608
BSTAR          = .11654827E-3
MEAN_MOTION_DOT = .359E-5
MEAN_MOTION_DDOT = 0

CCSDS_OMM_VERS = 2.0
CREATION_DATE  = 
ORIGINATOR     = 

OBJECT_NAME    = SL-14 R/B
OBJECT_ID      = 1980-005B
CENTER_NAME    = EARTH
REF_FRAME      = TEME
TIME_SYSTEM    = UTC
MEAN_ELEMENT_THEORY = SGP/SGP4

EPOCH          = 2026-03-09T17:27:50.321664
MEAN_MOTION    = 14.90930453
ECCENTRICITY   = .0016193
INCLINATION    = 82.5144
RA_OF_ASC_NODE = 307.2004
ARG_OF_PERICENTER = 158.1149
MEAN_ANOMALY   = 202.0766

EPHEMERIS_TYPE = 0
CLASSIFICATION_TYPE = U
NORAD_CAT_ID   = 11672
ELEMENT_SET_NO = 999
REV_AT_EPOCH   = 47649
BSTAR          = .66729E-4
MEAN_MOTION_DOT = .685E-5
MEAN_MOTION_DDOT = 0

CCSDS_OMM_VERS = 2.0
CREATION_DATE  = 
ORIGINATOR     = 

OBJECT_NAME    = SL-8 R/B
OBJECT_ID      = 1981-003B
CENTER_NAME    = EARTH
REF_FRAME      = TEME
TIME_SYSTEM    = UTC
MEAN_ELEMENT_THEORY = SGP/SGP4

EPOCH          = 2026-03-09T16:04:15.381408
MEAN_MOTION    = 15.10973620
ECCENTRICITY   = .0262185
INCLINATION    = 82.9386
RA_OF_ASC_NODE = 290.0424
ARG_OF_PERICENTER = 178.7086
MEAN_ANOMALY   = 181.4887

EPHEMERIS_TYPE = 0
CLASSIFICATION_TYPE = U
NORAD_CAT_ID   = 12139
ELEMENT_SET_NO = 999
REV_AT_EPOCH   = 31467
BSTAR          = .54116E-3
MEAN_MOTION_DOT = .21105E-3
MEAN_MOTION_DDOT = 0

CCSDS_OMM_VERS = 2.0
CREATION_DATE  = 
ORIGINATOR     = 

OBJECT_NAME    = SL-3 R/B
OBJECT_ID      = 1981-046B
CENTER_NAME    = EARTH
REF_FRAME      = TEME
TIME_SYSTEM    = UTC
MEAN_ELEMENT_THEORY = SGP/SGP4

EPOCH          = 2026-03-09T20:23:04.320384
MEAN_MOTION    = 15.42000884
ECCENTRICITY   = .0019558
INCLINATION    = 81.2298
RA_OF_ASC_NODE = 289.5524
ARG_OF_PERICENTER = 21.7604
MEAN_ANOMALY   = 338.4465

EPHEMERIS_TYPE = 0
CLASSIFICATION_TYPE = U
NORAD_CAT_ID   = 12465
ELEMENT_SET_NO = 999
REV_AT_EPOCH   = 43845
BSTAR          = .31863E-3
MEAN_MOTION_DOT = .1371E-3
MEAN_MOTION_DDOT = 0

CCSDS_OMM_VERS = 2.0
CREATION_DATE  = 
ORIGINATOR     = 

OBJECT_NAME    = SL-3 R/B
OBJECT_ID      = 1981-103B
CENTER_NAME    = EARTH
REF_FRAME      = TEME
TIME_SYSTEM    = UTC
MEAN_ELEMENT_THEORY = SGP/SGP4

EPOCH          = 2026-03-09T20:06:48.778848
MEAN_MOTION    = 15.21378384
ECCENTRICITY   = .0012431
INCLINATION    = 81.1587
RA_OF_ASC_NODE = 213.2579
ARG_OF_PERICENTER = 286.3601
MEAN_ANOMALY   = 73.6263

EPHEMERIS_TYPE = 0
CLASSIFICATION_TYPE = U
NORAD_CAT_ID   = 12904
ELEMENT_SET_NO = 999
REV_AT_EPOCH   = 97325
BSTAR          = .27837E-3
MEAN_MOTION_DOT = .6277E-4
MEAN_MOTION_DDOT = 0

CCSDS_OMM_VERS = 2.0
CREATION_DATE  = 
ORIGINATOR     = 

OBJECT_NAME    = SL-3 R/B
OBJECT_ID      = 1982-013B
CENTER_NAME    = EARTH
REF_FRAME      = TEME
TIME_SYSTEM    = UTC
MEAN_ELEMENT_THEORY = SGP/SGP4

EPOCH          = 2026-03-09T20:18:20.678688
MEAN_MOTION    = 15.22020581
ECCENTRICITY   = .0022655
INCLINATION    = 81.1762
RA_OF_ASC_NODE = 160.5873
ARG_OF_PERICENTER = 176.9824
MEAN_ANOMALY   = 183.1549

EPHEMERIS_TYPE = 0
CLASSIFICATION_TYPE = U
NORAD_CAT_ID   = 13068
ELEMENT_SET_NO = 999
REV_AT_EPOCH   = 40437
BSTAR          = .2427E-3
MEAN_MOTION_DOT = .5608E-4
MEAN_MOTION_DDOT = 0

CCSDS_OMM_VERS = 2.0
CREATION_DATE  = 
ORIGINATOR     = 

OBJECT_NAME    = SL-3 R/B
OBJECT_ID      = 1982-039B
CENTER_NAME    = EARTH
REF_FRAME      = TEME
TIME_SYSTEM    = UTC
MEAN_ELEMENT_THEORY = SGP/SGP4

EPOCH          = 2026-03-09T20:32:03.773472
MEAN_MOTION    = 15.10082703
ECCENTRICITY   = .002971
INCLINATION    = 81.1584
RA_OF_ASC_NODE = 215.7706
ARG_OF_PERICENTER = 323.9285
MEAN_ANOMALY   = 35.9935

EPHEMERIS_TYPE = 0
CLASSIFICATION_TYPE = U
NORAD_CAT_ID   = 13154
ELEMENT_SET_NO = 999
REV_AT_EPOCH   = 38166
BSTAR          = .20491E-3
MEAN_MOTION_DOT = .3393E-4
MEAN_MOTION_DDOT = 0

